H1 CPF 01  gfz 2021 03 25 01  5841 tandemx   
H2 1003001  6202 36605    2021 03 25 00 59 42 2021 03 30 00 00 42   120 1 1  0 0 0
H9
10 0 59301  59022.000000  0    -828293.886    603625.621  -6818742.682
10 0 59301  59142.000000  0       8881.564    980461.243  -6825268.728
10 0 59301  59262.000000  0     852223.409   1325617.856  -6712784.137
10 0 59301  59382.000000  0    1686519.497   1633138.823  -6483220.588
10 0 59301  59502.000000  0    2496603.830   1897975.762  -6140527.331
10 0 59301  59622.000000  0    3267627.895   2116070.915  -5690610.132
10 0 59301  59742.000000  0    3985329.467   2284419.144  -5141238.798
10 0 59301  59862.000000  0    4636296.959   2401109.580  -4501925.414
10 0 59301  59982.000000  0    5208224.924   2465345.539  -3783770.313
10 0 59301  60102.000000  0    5690153.264   2477441.619  -2999278.137
10 0 59301  60222.000000  0    6072686.665   2438798.175  -2162147.743
10 0 59301  60342.000000  0    6348189.305   2351853.212  -1287035.087
10 0 59301  60462.000000  0    6510946.623   2220011.785   -389295.259
10 0 59301  60582.000000  0    6557292.186   2047554.626    515292.215
10 0 59301  60702.000000  0    6485691.883   1839527.285   1410808.052
10 0 59301  60822.000000  0    6296788.771   1601614.747   2281480.294
10 0 59301  60942.000000  0    5993403.319   1340002.034   3111972.403
10 0 59301  61062.000000  0    5580488.524   1061225.565   3887661.032
10 0 59301  61182.000000  0    5065041.868    772019.204   4594899.438
10 0 59301  61302.000000  0    4455977.910    479159.443   5221258.883
10 0 59301  61422.000000  0    3763964.881    189312.783   5755747.481
10 0 59301  61542.000000  0    3001227.065    -91111.403   6188999.673
10 0 59301  61662.000000  0    2181321.337   -356097.298   6513433.634
10 0 59301  61782.000000  0    1318891.942   -600147.736   6723378.571
10 0 59301  61902.000000  0     429405.349   -818395.900   6815169.423
10 0 59301  62022.000000  0    -471129.071  -1006700.753   6787205.814
10 0 59301  62142.000000  0   -1366446.629  -1161725.197   6639977.300
10 0 59301  62262.000000  0   -2240319.842  -1280995.265   6376054.389
10 0 59301  62382.000000  0   -3076850.504  -1362938.911   6000046.222
10 0 59301  62502.000000  0   -3860759.765  -1406904.996   5518527.482
10 0 59301  62622.000000  0   -4577672.188  -1413163.110   4939929.980
10 0 59301  62742.000000  0   -5214386.078  -1382882.758   4274400.226
10 0 59301  62862.000000  0   -5759124.542  -1318091.851   3533624.724
10 0 59301  62982.000000  0   -6201761.261  -1221615.445   2730626.792
10 0 59301  63102.000000  0   -6534018.460  -1096996.760   1879538.920
10 0 59301  63222.000000  0   -6749632.739   -948401.851    995350.286
10 0 59301  63342.000000  0   -6844479.508   -780509.700     93635.154
10 0 59301  63462.000000  0   -6816654.700   -598390.728   -809729.862
10 0 59301  63582.000000  0   -6666511.847   -407376.957  -1698854.620
10 0 59301  63702.000000  0   -6396652.823   -212927.170  -2558122.400
10 0 59301  63822.000000  0   -6011876.167    -20491.415  -3372470.122
10 0 59301  63942.000000  0   -5519080.507    164623.537  -4127657.372
10 0 59301  64062.000000  0   -4927127.086    337383.036  -4810514.833
10 0 59301  64182.000000  0   -4246667.252    493145.154  -5409169.266
10 0 59301  64302.000000  0   -3489939.377    627770.150  -5913242.039
10 0 59301  64422.000000  0   -2670539.648    737715.558  -6314018.209
10 0 59301  64542.000000  0   -1803173.746    820116.476  -6604584.671
10 0 59301  64662.000000  0    -903392.359    872849.909  -6779938.978
10 0 59301  64782.000000  0      12684.582    894581.887  -6837064.935
10 0 59301  64902.000000  0     928648.918    884796.425  -6774978.281
10 0 59301  65022.000000  0    1828090.772    843806.241  -6594744.611
10 0 59301  65142.000000  0    2694886.970    772745.412  -6299463.298
10 0 59301  65262.000000  0    3513485.078    673543.980  -5894219.607
10 0 59301  65382.000000  0    4269179.058    548884.121  -5386005.363
10 0 59301  65502.000000  0    4948373.613    402138.791  -4783609.956
10 0 59301  65622.000000  0    5538834.140    237294.410  -4097479.992
10 0 59301  65742.000000  0    6029915.305     58857.735  -3339547.676
10 0 59301  65862.000000  0    6412763.468   -128250.754  -2523031.554
10 0 59301  65982.000000  0    6680489.888   -318815.174  -1662210.898
10 0 59301  66102.000000  0    6828307.460   -507451.376   -772175.683
10 0 59301  66222.000000  0    6853627.063   -688739.489    131441.026
10 0 59301  66342.000000  0    6756111.683   -857359.454   1032743.626
10 0 59301  66462.000000  0    6537685.073  -1008225.723   1915861.816
10 0 59301  66582.000000  0    6202495.562  -1136617.511   2765239.717
10 0 59301  66702.000000  0    5756832.416  -1238300.805   3565918.749
10 0 59301  66822.000000  0    5209001.421  -1309639.369   4303806.725
10 0 59301  66942.000000  0    4569160.987  -1347692.836   4965929.790
10 0 59301  67062.000000  0    3849123.650  -1350297.398   5540660.783
10 0 59301  67182.000000  0    3062128.763  -1316128.564   6017921.592
10 0 59301  67302.000000  0    2222590.542  -1244745.558   6389355.072
10 0 59301  67422.000000  0    1345828.858  -1136615.976   6648465.753
10 0 59301  67542.000000  0     447785.357   -993120.150   6790728.237
10 0 59301  67662.000000  0    -455268.391   -816534.562   6813660.416
10 0 59301  67782.000000  0   -1347025.016   -609995.784   6716862.808
10 0 59301  67902.000000  0   -2211434.350   -377444.896   6502024.830
10 0 59301  68022.000000  0   -3032990.914   -123553.023   6172897.492
10 0 59301  68142.000000  0   -3797012.771    146370.682   5735233.161
10 0 59301  68262.000000  0   -4489907.663    426487.086   5196691.192
10 0 59301  68382.000000  0   -5099420.764    710549.370   4566709.663
10 0 59301  68502.000000  0   -5614859.734    992037.512   3856344.887
10 0 59301  68622.000000  0   -6027290.849   1264302.323   3078080.043
10 0 59301  68742.000000  0   -6329703.212   1520715.914   2245607.020
10 0 59301  68862.000000  0   -6517136.956   1754824.651   1373583.576
10 0 59301  68982.000000  0   -6586772.227   1960501.643    477370.156
10 0 59301  69102.000000  0   -6537974.431   2132094.473   -427249.118
10 0 59301  69222.000000  0   -6372294.743   2264563.469  -1324353.433
10 0 59301  69342.000000  0   -6093426.972   2353607.931  -2198173.776
10 0 59301  69462.000000  0   -5707121.984   2395777.524  -3033378.185
10 0 59301  69582.000000  0   -5221060.116   2388565.001  -3815346.424
10 0 59301  69702.000000  0   -4644687.404   2330477.780  -4530426.889
10 0 59301  69822.000000  0   -3989020.772   2221087.922  -5166171.787
10 0 59301  69942.000000  0   -3266427.471   2061059.905  -5711546.275
10 0 59301  70062.000000  0   -2490385.550   1852156.113  -6157110.051
10 0 59301  70182.000000  0   -1675228.346   1597219.886  -6495170.730
10 0 59301  70302.000000  0    -835878.167   1300136.452  -6719904.171
10 0 59301  70422.000000  0      12423.279    965773.148  -6827443.953
10 0 59301  70542.000000  0     854384.857    599900.718  -6815940.089
10 0 59301  70662.000000  0    1674934.969    209095.917  -6685589.755
10 0 59301  70782.000000  0    2459486.070   -199374.171  -6438633.672
10 0 59301  70902.000000  0    3194188.371   -617683.156  -6079322.073
10 0 59301  71022.000000  0    3866171.806  -1037590.775  -5613848.573
10 0 59301  71142.000000  0    4463770.600  -1450600.042  -5050254.106
10 0 59301  71262.000000  0    4976730.390  -1848125.756  -4398300.268
10 0 59301  71382.000000  0    5396391.282  -2221669.929  -3669310.942
10 0 59301  71502.000000  0    5715843.805  -2563000.596  -2875984.729
10 0 59301  71622.000000  0    5930053.724  -2864330.541  -2032179.264
10 0 59301  71742.000000  0    6035951.278  -3118491.489  -1152670.971
10 0 59301  71862.000000  0    6032483.148  -3319099.505   -252895.144
10 0 59301  71982.000000  0    5920624.575  -3460707.597    651329.848
10 0 59301  72102.000000  0    5703351.425  -3538941.488   1544087.723
10 0 59301  72222.000000  0    5385570.913  -3550614.105   2409654.956
10 0 59301  72342.000000  0    4974011.603  -3493814.988   3232786.060
10 0 59301  72462.000000  0    4477078.806  -3367973.510   3998989.147
10 0 59301  72582.000000  0    3904678.719  -3173893.930   4694785.306
10 0 59301  72702.000000  0    3268014.383  -2913763.204   5307948.965
10 0 59301  72822.000000  0    2579358.456  -2591128.767   5827721.434
10 0 59301  72942.000000  0    1851810.687  -2210848.838   6244995.892
10 0 59301  73062.000000  0    1099043.883  -1779017.085   6552471.475
10 0 59301  73182.000000  0     335043.873  -1302862.496   6744775.005
10 0 59301  73302.000000  0    -426151.409   -790626.253   6818549.029
10 0 59301  73422.000000  0   -1170709.250   -251418.128   6772506.008
10 0 59301  73542.000000  0   -1885252.358    304945.254   6607449.252
10 0 59301  73662.000000  0   -2557098.333    868118.646   6326259.888
10 0 59301  73782.000000  0   -3174484.998   1427419.589   5933849.946
10 0 59301  73902.000000  0   -3726778.231   1972030.169   5437082.281
10 0 59301  74022.000000  0   -4204659.694   2491206.517   4844657.330
10 0 59301  74142.000000  0   -4600290.244   2974492.594   4166966.326
10 0 59301  74262.000000  0   -4907445.130   3411932.173   3415912.216
10 0 59301  74382.000000  0   -5121617.702   3794276.033   2604702.642
10 0 59301  74502.000000  0   -5240090.093   4113179.761   1747617.338
10 0 59301  74622.000000  0   -5261968.908   4361387.106    859752.617
10 0 59301  74742.000000  0   -5188182.697   4532892.856    -43252.045
10 0 59301  74862.000000  0   -5021442.813   4623081.160   -945497.130
10 0 59301  74982.000000  0   -4766168.588   4628837.569  -1831112.684
10 0 59301  75102.000000  0   -4428376.722   4548629.739  -2684546.916
10 0 59301  75222.000000  0   -4015539.550   4382554.260  -3490845.812
10 0 59301  75342.000000  0   -3536415.795   4132350.380  -4235917.766
10 0 59301  75462.000000  0   -3000859.579   3801380.996  -4906777.630
99
